{
    "links": {
        "self": "http://www.neowsapp.com/rest/v1/neo/3873312?api_key=iIulBulltgU6a56xZRHN4H3l9WmuAYTsLGpBGhQ2"
    },
    "id": "3873312",
    "neo_reference_id": "3873312",
    "name": "(2019 SP10)",
    "designation": "2019 SP10",
    "nasa_jpl_url": "http://ssd.jpl.nasa.gov/sbdb.cgi?sstr=3873312",
    "absolute_magnitude_h": 22.5,
    "estimated_diameter": {
        "kilometers": {
            "estimated_diameter_min": 0.0840533402,
            "estimated_diameter_max": 0.1879489824
        },
        "meters": {
            "estimated_diameter_min": 84.0533402073,
            "estimated_diameter_max": 187.9489824394
        },
        "miles": {
            "estimated_diameter_min": 0.0522283081,
            "estimated_diameter_max": 0.1167860472
        },
        "feet": {
            "estimated_diameter_min": 275.7655606856,
            "estimated_diameter_max": 616.6305395464
        }
    },
    "is_potentially_hazardous_asteroid": false,
    "close_approach_data": [
        {
            "close_approach_date": "2000-11-12",
            "close_approach_date_full": "2000-Nov-12 23:08",
            "epoch_date_close_approach": 974070480000,
            "relative_velocity": {
                "kilometers_per_second": "4.3439219958",
                "kilometers_per_hour": "15638.1191848812",
                "miles_per_hour": "9716.9191124058"
            },
            "miss_distance": {
                "astronomical": "0.3759052047",
                "lunar": "146.2271246283",
                "kilometers": "56234617.945033989",
                "miles": "34942571.2824834882"
            },
            "orbiting_body": "Earth"
        },
        {
            "close_approach_date": "2019-10-23",
            "close_approach_date_full": "2019-Oct-23 04:40",
            "epoch_date_close_approach": 1571805600000,
            "relative_velocity": {
                "kilometers_per_second": "4.4916299136",
                "kilometers_per_hour": "16169.8676890717",
                "miles_per_hour": "10047.3269538013"
            },
            "miss_distance": {
                "astronomical": "0.2922813551",
                "lunar": "113.6974471339",
                "kilometers": "43724668.163673637",
                "miles": "27169248.9420927106"
            },
            "orbiting_body": "Earth"
        },
        {
            "close_approach_date": "2054-11-06",
            "close_approach_date_full": "2054-Nov-06 23:48",
            "epoch_date_close_approach": 2677621680000,
            "relative_velocity": {
                "kilometers_per_second": "4.4693487535",
                "kilometers_per_hour": "16089.655512574",
                "miles_per_hour": "9997.486226688"
            },
            "miss_distance": {
                "astronomical": "0.3152195257",
                "lunar": "122.6203954973",
                "kilometers": "47156169.627130259",
                "miles": "29301485.0783812142"
            },
            "orbiting_body": "Earth"
        }
    ],
    "orbital_data": {
        "orbit_id": "6",
        "orbit_determination_date": "2019-11-24 04:52:55",
        "first_observation_date": "2019-09-24",
        "last_observation_date": "2019-11-23",
        "data_arc_in_days": 60,
        "observations_used": 30,
        "orbit_uncertainty": "6",
        "minimum_orbit_intersection": ".272708",
        "jupiter_tisserand_invariant": "3.569",
        "epoch_osculation": "2459000.5",
        "eccentricity": ".4152940436084547",
        "semi_major_axis": "2.161313017221663",
        "inclination": "7.912029201994115",
        "ascending_node_longitude": "46.88555787720907",
        "orbital_period": "1160.579594879798",
        "perihelion_distance": "1.263732594796089",
        "perihelion_argument": "347.6250771786212",
        "aphelion_distance": "3.058893439647238",
        "perihelion_time": "2458791.531013223102",
        "mean_anomaly": "64.82005678160735",
        "mean_motion": ".3101898409968904",
        "equinox": "J2000",
        "orbit_class": {
            "orbit_class_type": "AMO",
            "orbit_class_description": "Near-Earth asteroid orbits similar to that of 1221 Amor",
            "orbit_class_range": "1.017 AU < q (perihelion) < 1.3 AU"
        }
    },
    "is_sentry_object": false
}